{
  "links" : {
    "next" : "https://api.nasa.gov/neo/rest/v1/feed?start_date=2014-04-16&end_date=2014-04-16&detailed=true&api_key=t0TVs3DtDT2H8Oy2Zy8m2eVrNsAVKAexjcZXUckd",
    "prev" : "https://api.nasa.gov/neo/rest/v1/feed?start_date=2014-04-14&end_date=2014-04-14&detailed=true&api_key=t0TVs3DtDT2H8Oy2Zy8m2eVrNsAVKAexjcZXUckd",
    "self" : "https://api.nasa.gov/neo/rest/v1/feed?start_date=2014-04-15&end_date=2014-04-15&detailed=true&api_key=t0TVs3DtDT2H8Oy2Zy8m2eVrNsAVKAexjcZXUckd"
  },
  "element_count" : 6,
  "near_earth_objects" : {
    "2014-04-15" : [ {
      "links" : {
        "self" : "https://api.nasa.gov/neo/rest/v1/neo/3670038?api_key=t0TVs3DtDT2H8Oy2Zy8m2eVrNsAVKAexjcZXUckd"
      },
      "neo_reference_id" : "3670038",
      "name" : "(2014 HX176)",
      "nasa_jpl_url" : "http://ssd.jpl.nasa.gov/sbdb.cgi?sstr=3670038",
      "absolute_magnitude_h" : 24.5,
      "estimated_diameter" : {
        "kilometers" : {
          "estimated_diameter_min" : 0.0334622374,
          "estimated_diameter_max" : 0.0748238376
        },
        "meters" : {
          "estimated_diameter_min" : 33.4622374455,
          "estimated_diameter_max" : 74.8238376074
        },
        "miles" : {
          "estimated_diameter_min" : 0.0207924639,
          "estimated_diameter_max" : 0.0464933628
        },
        "feet" : {
          "estimated_diameter_min" : 109.7842471007,
          "estimated_diameter_max" : 245.4850393757
        }
      },
      "is_potentially_hazardous_asteroid" : false,
      "close_approach_data" : [ {
        "close_approach_date" : "2014-04-15",
        "epoch_date_close_approach" : 1397545200000,
        "relative_velocity" : {
          "kilometers_per_second" : "6.8349787991",
          "kilometers_per_hour" : "24605.9236765813",
          "miles_per_hour" : "15289.1640755958"
        },
        "miss_distance" : {
          "astronomical" : "0.0404483478",
          "lunar" : "15.7344074249",
          "kilometers" : "6050987",
          "miles" : "3759909"
        },
        "orbiting_body" : "Earth"
      } ],
      "orbital_data" : {
        "orbit_id" : "10",
        "orbit_determination_date" : "2017-04-06 08:41:18",
        "orbit_uncertainty" : "6",
        "minimum_orbit_intersection" : ".0276206",
        "jupiter_tisserand_invariant" : "3.636",
        "epoch_osculation" : "2458000.5",
        "eccentricity" : ".497291116764587",
        "semi_major_axis" : "2.039687946638473",
        "inclination" : "2.53733512533944",
        "ascending_node_longitude" : "193.1705274218173",
        "orbital_period" : "1064.005863050959",
        "perihelion_distance" : "1.025369249803359",
        "perihelion_argument" : "356.2813637519593",
        "aphelion_distance" : "3.054006643473586",
        "perihelion_time" : "2457814.862038250209",
        "mean_anomaly" : "62.80949057770742",
        "mean_motion" : ".3383440002555307",
        "equinox" : "J2000"
      }
    }, {
      "links" : {
        "self" : "https://api.nasa.gov/neo/rest/v1/neo/3698533?api_key=t0TVs3DtDT2H8Oy2Zy8m2eVrNsAVKAexjcZXUckd"
      },
      "neo_reference_id" : "3698533",
      "name" : "(2014 HH198)",
      "nasa_jpl_url" : "http://ssd.jpl.nasa.gov/sbdb.cgi?sstr=3698533",
      "absolute_magnitude_h" : 28.5,
      "estimated_diameter" : {
        "kilometers" : {
          "estimated_diameter_min" : 0.0053034072,
          "estimated_diameter_max" : 0.0118587791
        },
        "meters" : {
          "estimated_diameter_min" : 5.3034072332,
          "estimated_diameter_max" : 11.8587790858
        },
        "miles" : {
          "estimated_diameter_min" : 0.0032953835,
          "estimated_diameter_max" : 0.0073687014
        },
        "feet" : {
          "estimated_diameter_min" : 17.3996305869,
          "estimated_diameter_max" : 38.9067567758
        }
      },
      "is_potentially_hazardous_asteroid" : false,
      "close_approach_data" : [ {
        "close_approach_date" : "2014-04-15",
        "epoch_date_close_approach" : 1397545200000,
        "relative_velocity" : {
          "kilometers_per_second" : "7.6951897666",
          "kilometers_per_hour" : "27702.6831598694",
          "miles_per_hour" : "17213.3699889755"
        },
        "miss_distance" : {
          "astronomical" : "0.0206599498",
          "lunar" : "8.0367202759",
          "kilometers" : "3090684.5",
          "miles" : "1920462.25"
        },
        "orbiting_body" : "Earth"
      } ],
      "orbital_data" : {
        "orbit_id" : "3",
        "orbit_determination_date" : "2017-04-06 08:40:51",
        "orbit_uncertainty" : "9",
        "minimum_orbit_intersection" : ".0205477",
        "jupiter_tisserand_invariant" : "5.086",
        "epoch_osculation" : "2456773.5",
        "eccentricity" : ".2896458077425647",
        "semi_major_axis" : "1.252826335716134",
        "inclination" : "6.626100891844656",
        "ascending_node_longitude" : "214.6155570210589",
        "orbital_period" : "512.1942964555739",
        "perihelion_distance" : ".8899504397464768",
        "perihelion_argument" : "288.3548662238815",
        "aphelion_distance" : "1.615702231685791",
        "perihelion_time" : "2456711.865725777761",
        "mean_anomaly" : "43.32015970023709",
        "mean_motion" : ".7028582756411565",
        "equinox" : "J2000"
      }
    }, {
      "links" : {
        "self" : "https://api.nasa.gov/neo/rest/v1/neo/2392211?api_key=t0TVs3DtDT2H8Oy2Zy8m2eVrNsAVKAexjcZXUckd"
      },
      "neo_reference_id" : "2392211",
      "name" : "392211 (2009 TG10)",
      "nasa_jpl_url" : "http://ssd.jpl.nasa.gov/sbdb.cgi?sstr=2392211",
      "absolute_magnitude_h" : 17.6,
      "estimated_diameter" : {
        "kilometers" : {
          "estimated_diameter_min" : 0.8027031673,
          "estimated_diameter_max" : 1.7948988478
        },
        "meters" : {
          "estimated_diameter_min" : 802.7031672829,
          "estimated_diameter_max" : 1794.8988477988
        },
        "miles" : {
          "estimated_diameter_min" : 0.4987764698,
          "estimated_diameter_max" : 1.115298092
        },
        "feet" : {
          "estimated_diameter_min" : 2633.5406593483,
          "estimated_diameter_max" : 5888.7759358124
        }
      },
      "is_potentially_hazardous_asteroid" : false,
      "close_approach_data" : [ {
        "close_approach_date" : "2014-04-15",
        "epoch_date_close_approach" : 1397545200000,
        "relative_velocity" : {
          "kilometers_per_second" : "23.5212828993",
          "kilometers_per_hour" : "84676.6184375056",
          "miles_per_hour" : "52614.7577174601"
        },
        "miss_distance" : {
          "astronomical" : "0.2605192508",
          "lunar" : "101.3419799805",
          "kilometers" : "38973124",
          "miles" : "24216776"
        },
        "orbiting_body" : "Earth"
      } ],
      "orbital_data" : {
        "orbit_id" : "51",
        "orbit_determination_date" : "2017-09-24 06:24:09",
        "orbit_uncertainty" : "0",
        "minimum_orbit_intersection" : ".141269",
        "jupiter_tisserand_invariant" : "3.480",
        "epoch_osculation" : "2458000.5",
        "eccentricity" : ".4234924891809909",
        "semi_major_axis" : "1.974334297366982",
        "inclination" : "40.85705409786781",
        "ascending_node_longitude" : "210.6823723771288",
        "orbital_period" : "1013.279979366673",
        "perihelion_distance" : "1.138218551299636",
        "perihelion_argument" : "12.17299895020131",
        "aphelion_distance" : "2.810450043434328",
        "perihelion_time" : "2457781.325626961335",
        "mean_anomaly" : "77.86867983243447",
        "mean_motion" : ".3552818641744106",
        "equinox" : "J2000"
      }
    } ]
  }
}